[
    {
        "Altitude(m)": 703115.5356865734,
        "Argument of Periapsis(deg)": 0.0022780242373254137,
        "Eccentricity": 0.0,
        "Inclination(deg)": 45.0,
        "Latitude(deg)": 21.04045580128362,
        "Longitude(deg)": -62.625574197872616,
        "Mean Anomaly(deg)": -210.42065667050386,
        "RAAN(deg)": 239.99784961170835,
        "Satellite Name": "Constellation 1 1065",
        "Satellite Number": 1065,
        "Semi-Major Axis(m)": 7083131.272910544,
        "Time(s)": 38
    },
    {
        "Altitude(m)": 703111.9012205177,
        "Argument of Periapsis(deg)": 0.002337972243570819,
        "Eccentricity": 0.0,
        "Inclination(deg)": 45.0,
        "Latitude(deg)": 21.000555280790113,
        "Longitude(deg)": -62.5805200809251,
        "Mean Anomaly(deg)": -210.35995553025396,
        "RAAN(deg)": 239.9977930225428,
        "Satellite Name": "Constellation 1 1065",
        "Satellite Number": 1065,
        "Semi-Major Axis(m)": 7083131.272910544,
        "Time(s)": 39
    },
    {
        "Altitude(m)": 703108.2798624437,
        "Argument of Periapsis(deg)": 0.0023979202498162246,
        "Eccentricity": 0.0,
        "Inclination(deg)": 45.0,
        "Latitude(deg)": 20.96064040395559,
        "Longitude(deg)": -62.53549209528913,
        "Mean Anomaly(deg)": -210.29925439000402,
        "RAAN(deg)": 239.99773643337716,
        "Satellite Name": "Constellation 1 1065",
        "Satellite Number": 1065,
        "Semi-Major Axis(m)": 7083131.272910544,
        "Time(s)": 40
    },
    {
        "Altitude(m)": 703104.6716451601,
        "Argument of Periapsis(deg)": 0.00245786825606163,
        "Eccentricity": 0.0,
        "Inclination(deg)": 45.0,
        "Latitude(deg)": 20.920711207974836,
        "Longitude(deg)": -62.490490182125654,
        "Mean Anomaly(deg)": -210.23855324975415,
        "RAAN(deg)": 239.9976798442116,
        "Satellite Name": "Constellation 1 1065",
        "Satellite Number": 1065,
        "Semi-Major Axis(m)": 7083131.272910544,
        "Time(s)": 41
    },
    {
        "Altitude(m)": 703101.0766014378,
        "Argument of Periapsis(deg)": 0.002517816262307036,
        "Eccentricity": 0.0,
        "Inclination(deg)": 45.0,
        "Latitude(deg)": 20.880767729990787,
        "Longitude(deg)": -62.44551428262114,
        "Mean Anomaly(deg)": -210.17785210950424,
        "RAAN(deg)": 239.99762325504605,
        "Satellite Name": "Constellation 1 1065",
        "Satellite Number": 1065,
        "Semi-Major Axis(m)": 7083131.272910544,
        "Time(s)": 42
    },
    {
        "Altitude(m)": 703097.4947639807,
        "Argument of Periapsis(deg)": 0.0025777642685524413,
        "Eccentricity": 0.0,
        "Inclination(deg)": 45.0,
        "Latitude(deg)": 20.840810007095445,
        "Longitude(deg)": -62.40056433798845,
        "Mean Anomaly(deg)": -210.1171509692543,
        "RAAN(deg)": 239.9975666658805,
        "Satellite Name": "Constellation 1 1065",
        "Satellite Number": 1065,
        "Semi-Major Axis(m)": 7083131.272910544,
        "Time(s)": 43
    },
    {
        "Altitude(m)": 703093.9261654544,
        "Argument of Periapsis(deg)": 0.002637712274797847,
        "Eccentricity": 0.0,
        "Inclination(deg)": 45.0,
        "Latitude(deg)": 20.80083807632908,
        "Longitude(deg)": -62.35564045756303,
        "Mean Anomaly(deg)": -210.05644982900446,
        "RAAN(deg)": 239.99751007671495,
        "Satellite Name": "Constellation 1 1065",
        "Satellite Number": 1065,
        "Semi-Major Axis(m)": 7083131.272910544,
        "Time(s)": 44
    },
    {
        "Altitude(m)": 703090.370838476,
        "Argument of Periapsis(deg)": 0.0026976602810432526,
        "Eccentricity": 0.0,
        "Inclination(deg)": 45.0,
        "Latitude(deg)": 20.76085197468138,
        "Longitude(deg)": -62.3107422464157,
        "Mean Anomaly(deg)": -209.99574868875453,
        "RAAN(deg)": 239.99745348754936,
        "Satellite Name": "Constellation 1 1065",
        "Satellite Number": 1065,
        "Semi-Major Axis(m)": 7083131.272910544,
        "Time(s)": 45
    },
    {
        "Altitude(m)": 703086.8288156062,
        "Argument of Periapsis(deg)": 0.0027576082872886585,
        "Eccentricity": 0.0,
        "Inclination(deg)": 45.0,
        "Latitude(deg)": 20.720851739090726,
        "Longitude(deg)": -62.2658698139347,
        "Mean Anomaly(deg)": -209.93504754850463,
        "RAAN(deg)": 239.99739689838376,
        "Satellite Name": "Constellation 1 1065",
        "Satellite Number": 1065,
        "Semi-Major Axis(m)": 7083131.272910544,
        "Time(s)": 46
    },
    {
        "Altitude(m)": 703083.3001293576,
        "Argument of Periapsis(deg)": 0.0028175562935340644,
        "Eccentricity": 0.0,
        "Inclination(deg)": 45.0,
        "Latitude(deg)": 20.680837406444574,
        "Longitude(deg)": -62.22102310143721,
        "Mean Anomaly(deg)": -209.87434640825478,
        "RAAN(deg)": 239.9973403092182,
        "Satellite Name": "Constellation 1 1065",
        "Satellite Number": 1065,
        "Semi-Major Axis(m)": 7083131.272910544,
        "Time(s)": 47
    },
    {
        "Altitude(m)": 703079.7848121997,
        "Argument of Periapsis(deg)": 0.00287750429977947,
        "Eccentricity": 0.0,
        "Inclination(deg)": 45.0,
        "Latitude(deg)": 20.640809013579624,
        "Longitude(deg)": -62.17620205026718,
        "Mean Anomaly(deg)": -209.81364526800482,
        "RAAN(deg)": 239.99728372005265,
        "Satellite Name": "Constellation 1 1065",
        "Satellite Number": 1065,
        "Semi-Major Axis(m)": 7083131.272910544,
        "Time(s)": 48
    },
    {
        "Altitude(m)": 703076.2828965465,
        "Argument of Periapsis(deg)": 0.002937452306024875,
        "Eccentricity": 0.0,
        "Inclination(deg)": 45.0,
        "Latitude(deg)": 20.60076659728209,
        "Longitude(deg)": -62.13140660179498,
        "Mean Anomaly(deg)": -209.752944127755,
        "RAAN(deg)": 239.9972271308871,
        "Satellite Name": "Constellation 1 1065",
        "Satellite Number": 1065,
        "Semi-Major Axis(m)": 7083131.272910544,
        "Time(s)": 49
    },
    {
        "Altitude(m)": 703072.7944147559,
        "Argument of Periapsis(deg)": 0.0029974003122702807,
        "Eccentricity": 0.0,
        "Inclination(deg)": 45.0,
        "Latitude(deg)": 20.560710194287438,
        "Longitude(deg)": -62.08663669741768,
        "Mean Anomaly(deg)": -209.69224298750504,
        "RAAN(deg)": 239.99717054172152,
        "Satellite Name": "Constellation 1 1065",
        "Satellite Number": 1065,
        "Semi-Major Axis(m)": 7083131.272910544,
        "Time(s)": 50
    },
    {
        "Altitude(m)": 703069.3193991476,
        "Argument of Periapsis(deg)": 0.0030573483185156866,
        "Eccentricity": 0.0,
        "Inclination(deg)": 45.0,
        "Latitude(deg)": 20.52063984128084,
        "Longitude(deg)": -62.041892278559274,
        "Mean Anomaly(deg)": -209.63154184725514,
        "RAAN(deg)": 239.9971139525559,
        "Satellite Name": "Constellation 1 1065",
        "Satellite Number": 1065,
        "Semi-Major Axis(m)": 7083131.272910544,
        "Time(s)": 51
    },
    {
        "Altitude(m)": 703065.8578819798,
        "Argument of Periapsis(deg)": 0.003117296324761092,
        "Eccentricity": 0.0,
        "Inclination(deg)": 45.0,
        "Latitude(deg)": 20.48055557489705,
        "Longitude(deg)": -61.997173454767335,
        "Mean Anomaly(deg)": -209.5708407070053,
        "RAAN(deg)": 239.99705736339035,
        "Satellite Name": "Constellation 1 1065",
        "Satellite Number": 1065,
        "Semi-Major Axis(m)": 7083131.272910544,
        "Time(s)": 52
    },
    {
        "Altitude(m)": 703062.4098954665,
        "Argument of Periapsis(deg)": 0.0031772443310064975,
        "Eccentricity": 0.0,
        "Inclination(deg)": 45.0,
        "Latitude(deg)": 20.440457431720713,
        "Longitude(deg)": -61.95247983132549,
        "Mean Anomaly(deg)": -209.5101395667553,
        "RAAN(deg)": 239.9970007742248,
        "Satellite Name": "Constellation 1 1065",
        "Satellite Number": 1065,
        "Semi-Major Axis(m)": 7083131.272910544,
        "Time(s)": 53
    },
    {
        "Altitude(m)": 703058.9754717699,
        "Argument of Periapsis(deg)": 0.0032371923372519038,
        "Eccentricity": 0.0,
        "Inclination(deg)": 45.0,
        "Latitude(deg)": 20.400345448286515,
        "Longitude(deg)": -61.90781151783567,
        "Mean Anomaly(deg)": -209.44943842650545,
        "RAAN(deg)": 239.99694418505922,
        "Satellite Name": "Constellation 1 1065",
        "Satellite Number": 1065,
        "Semi-Major Axis(m)": 7083131.272910544,
        "Time(s)": 54
    },
    {
        "Altitude(m)": 703055.5546429945,
        "Argument of Periapsis(deg)": 0.0032971403434973088,
        "Eccentricity": 0.0,
        "Inclination(deg)": 45.0,
        "Latitude(deg)": 20.360219661078848,
        "Longitude(deg)": -61.86316845582952,
        "Mean Anomaly(deg)": -209.3887372862556,
        "RAAN(deg)": 239.99688759589367,
        "Satellite Name": "Constellation 1 1065",
        "Satellite Number": 1065,
        "Semi-Major Axis(m)": 7083131.272910544,
        "Time(s)": 55
    },
    {
        "Altitude(m)": 703052.1474412045,
        "Argument of Periapsis(deg)": 0.0033570883497427146,
        "Eccentricity": 0.0,
        "Inclination(deg)": 45.0,
        "Latitude(deg)": 20.320080106532473,
        "Longitude(deg)": -61.81855058686633,
        "Mean Anomaly(deg)": -209.32803614600564,
        "RAAN(deg)": 239.99683100672806,
        "Satellite Name": "Constellation 1 1065",
        "Satellite Number": 1065,
        "Semi-Major Axis(m)": 7083131.272910544,
        "Time(s)": 56
    }
]